IRIDIUM 921             
1 24873U 97034E   24268.57327242  .00070034  00000+0  12683-2 0  9996
2 24873  86.3753 238.5553 0005690 133.6574 226.5158 15.49372103490511
IRIDIUM 26              
1 24903U 97043A   24268.59222460  .00001209  00000+0  40470-3 0  9992
2 24903  86.3979 222.0327 0002221  87.5431 272.6020 14.36610751418607
IRIDIUM 22              
1 24907U 97043E   24268.58574400  .00001076  00000+0  36759-3 0  9996
2 24907  86.3974 225.3488 0002431  87.0947 273.0527 14.35482007418652
DUMMY MASS 1            
1 24925U 97048A   24268.49656987  .00001108  00000+0  12232-3 0  9998
2 24925  86.3294 258.0747 0007566  27.8714 332.2914 14.86439018465656
DUMMY MASS 2            
1 24926U 97048B   24268.48206330  .00001090  00000+0  12097-3 0  9990
2 24926  86.3293 259.6430 0008754  35.7008 324.4801 14.86195174465432
IRIDIUM 29              
1 24944U 97051A   24268.48780226  .00001101  00000+0  37317-3 0  9990
2 24944  86.3906 255.2463 0002519  86.1086 274.0398 14.35926660415139
IRIDIUM 33              
1 24946U 97051C   24268.53959041  .00000731  00000+0  25247-3 0  9998
2 24946  86.3821 254.4709 0006465 211.1958 148.8855 14.34519825414655
IRIDIUM 28              
1 24948U 97051E   24268.49541242  .00001048  00000+0  34813-3 0  9996
2 24948  86.3914 252.9080 0002003  96.8111 263.3314 14.36880345415685
